TEVEL2-8                
1 63239U 25052AF  26068.66815442  .00019130  00000+0  69304-3 0  9993
2 63239  97.4055 324.2923 0008031 124.9191 235.2804 15.28392908 54807
STARLINK-33770          
1 63906U 25095S   26068.31579551  .00032518  00000+0  11856-2 0  9994
2 63906  42.9963 178.0606 0001485 252.4528 107.6161 15.27590928 47723
